{"type": "FeatureCollection", "features": [ {"type": "Feature", "properties": {"norad_id": 34375, "name": "IRIDIUM 33 DEB", "group": "iridium-33-debris", "lat": 41.45021727381207, "lon": -5.27991947805667, "alt_km": 779.3952539281227, "timestamp": "2025-12-24T16:52:41.921301+00:00", "meta": {"OBJECT_NAME": "IRIDIUM 33 DEB", "OBJECT_ID": "1997-051FT", "EPOCH": "2025-12-23T23:53:27.636000", "MEAN_MOTION": 14.18011996, "ECCENTRICITY": 0.0103696, "INCLINATION": 86.4323, "RA_OF_ASC_NODE": 178.164, "ARG_OF_PERICENTER": 91.5399, "MEAN_ANOMALY": 34.9546, "EPHEMERIS_TYPE": 0, "CLASSIFICATION_TYPE": "U", "NORAD_CAT_ID": 34375, "ELEMENT_SET_NO": 999, "REV_AT_EPOCH": 86871, "BSTAR": 0.00038612, "MEAN_MOTION_DOT": 8.53e-06, "MEAN_MOTION_DDOT": 0}, "tle": {"line1": "1 34375U 97051FT  25357.99545875  .00000853  00000+0  38612-3 0  9996", "line2": "2 34375  86.4323 178.1640 0103696  91.5399  34.9546 14.18011996868719"}}, "geometry": {"type": "Point", "coordinates": [-5.27991947805667, 41.45021727381207]}}, {"type": "Feature", "properties": {"norad_id": 34376, "name": "IRIDIUM 33 DEB", "group": "iridium-33-debris", "lat": -86.29565154278981, "lon": -88.78628800030307, "alt_km": 707.7630250078146, "timestamp": "2025-12-24T16:52:41.921312+00:00", "meta": {"OBJECT_NAME": "IRIDIUM 33 DEB", "OBJECT_ID": "1997-051FU", "EPOCH": "2025-12-24T00:52:22.525248", "MEAN_MOTION": 14.62714709, "ECCENTRICITY": 0.00283752, "INCLINATION": 86.2981, "RA_OF_ASC_NODE": 1.4602, "ARG_OF_PERICENTER": 129.6152, "MEAN_ANOMALY": 230.7571, "EPHEMERIS_TYPE": 0, "CLASSIFICATION_TYPE": "U", "NORAD_CAT_ID": 34376, "ELEMENT_SET_NO": 999, "REV_AT_EPOCH": 88172, "BSTAR": 0.0014767805, "MEAN_MOTION_DOT": 7.587e-05, "MEAN_MOTION_DDOT": 0}, "tle": {"line1": "1 34376U 97051FU  25358.03637182  .00007587  00000+0  14768-2 0  9992", "line2": "2 34376  86.2981   1.4602 0028375 129.6152 230.7571 14.62714709881725"}}, "geometry": {"type": "Point", "coordinates": [-88.78628800030307, -86.29565154278981]}}, {"type": "Feature", "properties": {"norad_id": 34486, "name": "IRIDIUM 33 DEB", "group": "iridium-33-debris", "lat": 56.444316417311555, "lon": -178.95794108192146, "alt_km": 566.2007949991294, "timestamp": "2025-12-24T16:52:41.921327+00:00", "meta": {"OBJECT_NAME": "IRIDIUM 33 DEB", "OBJECT_ID": "1997-051GB", "EPOCH": "2025-12-24T00:31:38.959680", "MEAN_MOTION": 14.96285435, "ECCENTRICITY": 0.00139233, "INCLINATION": 86.3926, "RA_OF_ASC_NODE": 6.8146, "ARG_OF_PERICENTER": 80.2681, "MEAN_ANOMALY": 335.5299, "EPHEMERIS_TYPE": 0, "CLASSIFICATION_TYPE": "U", "NORAD_CAT_ID": 34486, "ELEMENT_SET_NO": 999, "REV_AT_EPOCH": 89155, "BSTAR": 0.0020880938, "MEAN_MOTION_DOT": 0.00023707, "MEAN_MOTION_DDOT": 0}, "tle": {"line1": "1 34486U 97051GB  25358.02197870  .00023707  00000+0  20881-2 0  9993", "line2": "2 34486  86.3926   6.8146 0013923  80.2681 335.5299 14.96285435891550"}}, "geometry": {"type": "Point", "coordinates": [-178.95794108192146, 56.444316417311555]}}, {"type": "Feature", "properties": {"norad_id": 34487, "name": "IRIDIUM 33 DEB", "group": "iridium-33-debris", "lat": 25.92988161904001, "lon": 9.008005722654895, "alt_km": 736.94760549281, "timestamp": "2025-12-24T16:52:41.921338+00:00", "meta": {"OBJECT_NAME": "IRIDIUM 33 DEB", "OBJECT_ID": "1997-051GC", "EPOCH": "2025-12-24T00:25:07.192704", "MEAN_MOTION": 14.43230021, "ECCENTRICITY": 0.00332562, "INCLINATION": 86.3429, "RA_OF_ASC_NODE": 7.5212, "ARG_OF_PERICENTER": 93.3155, "MEAN_ANOMALY": 332.1294, "EPHEMERIS_TYPE": 0, "CLASSIFICATION_TYPE": "U", "NORAD_CAT_ID": 34487, "ELEMENT_SET_NO": 999, "REV_AT_EPOCH": 88411, "BSTAR": 0.00017640846, "MEAN_MOTION_DOT": 6.17e-06, "MEAN_MOTION_DDOT": 0}, "tle": {"line1": "1 34487U 97051GC  25358.01744436  .00000617  00000+0  17641-3 0  9995", "line2": "2 34487  86.3429   7.5212 0033256  93.3155 332.1294 14.43230021884118"}}, "geometry": {"type": "Point", "coordinates": [9.008005722654895, 25.92988161904001]}}, {"type": "Feature", "properties": {"norad_id": 34488, "name": "IRIDIUM 33 DEB", "group": "iridium-33-debris", "lat": 15.895715180092122, "lon": 118.82912107179921, "alt_km": 474.1395504757902, "timestamp": "2025-12-24T16:52:41.921349+00:00", "meta": {"OBJECT_NAME": "IRIDIUM 33 DEB", "OBJECT_ID": "1997-051GD", "EPOCH": "2025-12-23T07:14:56.478912", "MEAN_MOTION": 15.32002527, "ECCENTRICITY": 0.00097213, "INCLINATION": 86.3275, "RA_OF_ASC_NODE": 300.5735, "ARG_OF_PERICENTER": 36.3388, "MEAN_ANOMALY": 323.852, "EPHEMERIS_TYPE": 0, "CLASSIFICATION_TYPE": "U", "NORAD_CAT_ID": 34488, "ELEMENT_SET_NO": 999, "REV_AT_EPOCH": 89401, "BSTAR": 0.0045068376, "MEAN_MOTION_DOT": 0.00141753, "MEAN_MOTION_DDOT": 0}, "tle": {"line1": "1 34488U 97051GD  25357.30204258  .00141753  00000+0  45068-2 0  9990", "line2": "2 34488  86.3275 300.5735 0009721  36.3388 323.8520 15.32002527894015"}}, "geometry": {"type": "Point", "coordinates": [118.82912107179921, 15.895715180092122]}}, {"type": "Feature", "properties": {"norad_id": 34492, "name": "IRIDIUM 33 DEB", "group": "iridium-33-debris", "lat": 84.91642559004526, "lon": 13.702479803392475, "alt_km": 848.701068174103, "timestamp": "2025-12-24T16:52:41.921360+00:00", "meta": {"OBJECT_NAME": "IRIDIUM 33 DEB", "OBJECT_ID": "1997-051GH", "EPOCH": "2025-12-23T09:11:16.550880", "MEAN_MOTION": 14.25905293, "ECCENTRICITY": 0.01887647, "INCLINATION": 86.4718, "RA_OF_ASC_NODE": 330.3252, "ARG_OF_PERICENTER": 203.591, "MEAN_ANOMALY": 310.8385, "EPHEMERIS_TYPE": 0, "CLASSIFICATION_TYPE": "U", "NORAD_CAT_ID": 34492, "ELEMENT_SET_NO": 999, "REV_AT_EPOCH": 85210, "BSTAR": 0.0030136901, "MEAN_MOTION_DOT": 8.678e-05, "MEAN_MOTION_DDOT": 0}, "tle": {"line1": "1 34492U 97051GH  25357.38283045  .00008678  00000+0  30137-2 0  9993", "line2": "2 34492  86.4718 330.3252 0188764 203.5910 310.8385 14.25905293852104"}}, "geometry": {"type": "Point", "coordinates": [13.702479803392475, 84.91642559004526]}}, {"type": "Feature", "properties": {"norad_id": 34497, "name": "IRIDIUM 33 DEB", "group": "iridium-33-debris", "lat": 37.83580990978169, "lon": 50.18933232685699, "alt_km": 804.3878005148954, "timestamp": "2025-12-24T16:52:41.921370+00:00", "meta": {"OBJECT_NAME": "IRIDIUM 33 DEB", "OBJECT_ID": "1997-051GN", "EPOCH": "2025-12-22T21:33:03.136608", "MEAN_MOTION": 14.27482363, "ECCENTRICITY": 0.00780484, "INCLINATION": 86.2769, "RA_OF_ASC_NODE": 48.0617, "ARG_OF_PERICENTER": 306.2683, "MEAN_ANOMALY": 179.2919, "EPHEMERIS_TYPE": 0, "CLASSIFICATION_TYPE": "U", "NORAD_CAT_ID": 34497, "ELEMENT_SET_NO": 999, "REV_AT_EPOCH": 87028, "BSTAR": 0.00056228088, "MEAN_MOTION_DOT": 1.443e-05, "MEAN_MOTION_DDOT": 0}, "tle": {"line1": "1 34497U 97051GN  25356.89795297  .00001443  00000+0  56228-3 0  9993", "line2": "2 34497  86.2769  48.0617 0078048 306.2683 179.2919 14.27482363870281"}}, "geometry": {"type": "Point", "coordinates": [50.18933232685699, 37.83580990978169]}}, {"type": "Feature", "properties": {"norad_id": 34508, "name": "IRIDIUM 33 DEB", "group": "iridium-33-debris", "lat": -51.61252587646043, "lon": 92.9761698347892, "alt_km": 817.771258407869, "timestamp": "2025-12-24T16:52:41.921380+00:00", "meta": {"OBJECT_NAME": "IRIDIUM 33 DEB", "OBJECT_ID": "1997-051GZ", "EPOCH": "2025-12-23T06:03:45.637920", "MEAN_MOTION": 14.38502292, "ECCENTRICITY": 0.00666476, "INCLINATION": 86.3705, "RA_OF_ASC_NODE": 98.1866, "ARG_OF_PERICENTER": 139.2389, "MEAN_ANOMALY": 221.3824, "EPHEMERIS_TYPE": 0, "CLASSIFICATION_TYPE": "U", "NORAD_CAT_ID": 34508, "ELEMENT_SET_NO": 999, "REV_AT_EPOCH": 87460, "BSTAR": 0.0011996031, "MEAN_MOTION_DOT": 3.78e-05, "MEAN_MOTION_DDOT": 0}, "tle": {"line1": "1 34508U 97051GZ  25357.25261155  .00003780  00000+0  11996-2 0  9996", "line2": "2 34508  86.3705  98.1866 0066647 139.2389 221.3824 14.38502292874606"}}, "geometry": {"type": "Point", "coordinates": [92.9761698347892, -51.61252587646043]}}, {"type": "Feature", "properties": {"norad_id": 34521, "name": "IRIDIUM 33 DEB", "group": "iridium-33-debris", "lat": 61.088528563385466, "lon": -161.30498588802863, "alt_km": 674.7585539493739, "timestamp": "2025-12-24T16:52:41.921391+00:00", "meta": {"OBJECT_NAME": "IRIDIUM 33 DEB", "OBJECT_ID": "1997-051HN", "EPOCH": "2025-12-24T03:12:35.283744", "MEAN_MOTION": 14.63456562, "ECCENTRICITY": 0.0003031, "INCLINATION": 86.3785, "RA_OF_ASC_NODE": 25.5306, "ARG_OF_PERICENTER": 169.1513, "MEAN_ANOMALY": 190.9765, "EPHEMERIS_TYPE": 0, "CLASSIFICATION_TYPE": "U", "NORAD_CAT_ID": 34521, "ELEMENT_SET_NO": 999, "REV_AT_EPOCH": 88639, "BSTAR": 0.0008702054, "MEAN_MOTION_DOT": 4.525e-05, "MEAN_MOTION_DDOT": 0}, "tle": {"line1": "1 34521U 97051HN  25358.13374171  .00004525  00000+0  87021-3 0  9993", "line2": "2 34521  86.3785  25.5306 0003031 169.1513 190.9765 14.63456562886391"}}, "geometry": {"type": "Point", "coordinates": [-161.30498588802863, 61.088528563385466]}}, {"type": "Feature", "properties": {"norad_id": 34525, "name": "IRIDIUM 33 DEB", "group": "iridium-33-debris", "lat": 43.42899635159004, "lon": -141.70659747317188, "alt_km": 743.708434408918, "timestamp": "2025-12-24T16:52:41.921406+00:00", "meta": {"OBJECT_NAME": "IRIDIUM 33 DEB", "OBJECT_ID": "1997-051HS", "EPOCH": "2025-12-24T03:10:54.670080", "MEAN_MOTION": 14.4293133, "ECCENTRICITY": 0.00062908, "INCLINATION": 86.3717, "RA_OF_ASC_NODE": 41.9805, "ARG_OF_PERICENTER": 68.8612, "MEAN_ANOMALY": 344.8819, "EPHEMERIS_TYPE": 0, "CLASSIFICATION_TYPE": "U", "NORAD_CAT_ID": 34525, "ELEMENT_SET_NO": 999, "REV_AT_EPOCH": 88252, "BSTAR": 0.00032438464, "MEAN_MOTION_DOT": 1.104e-05, "MEAN_MOTION_DDOT": 0}, "tle": {"line1": "1 34525U 97051HS  25358.13257720  .00001104  00000+0  32438-3 0  9999", "line2": "2 34525  86.3717  41.9805 0006290  68.8612 344.8819 14.42931330882520"}}, "geometry": {"type": "Point", "coordinates": [-141.70659747317188, 43.42899635159004]}}]}